ONEWEB-0283             
1 49001U 21060AL  25217.46997297  .00000039  00000+0  67719-4 0  9998
2 49001  87.9036 291.7190 0002169  93.3204 266.8175 13.16593250199398
ONEWEB-0284             
1 49002U 21060AM  25216.93165037 -.00000307  00000+0 -83556-3 0  9995
2 49002  87.9053 291.8011 0001703  97.1566 262.9759 13.16593516197980
ONEWEB-0285             
1 49075U 21075A   25216.82853655  .00000182  00000+0  47115-3 0  9999
2 49075  87.8845  53.5483 0001696  85.2450 274.8872 13.12448299193713
ONEWEB-0286             
1 49076U 21075B   25217.03912089 -.00000336  00000+0 -97018-3 0  9991
2 49076  87.8868  53.5351 0001720  93.1007 267.0319 13.12443413194070
ONEWEB-0287             
1 49077U 21075C   25216.89251242  .00000138  00000+0  32318-3 0  9992
2 49077  87.9040  68.8114 0001547  98.0519 262.0788 13.17651372191970
ONEWEB-0288             
1 49078U 21075D   25216.78622595  .00000059  00000+0  12878-3 0  9995
2 49078  87.8851  53.5503 0001579  87.6790 272.4519 13.12441646193686
ONEWEB-0289             
1 49079U 21075E   25216.54837965 -.00018906  00000+0 -49329-1 0  9990
2 49079  87.9022  68.9106 0003363  59.8639 300.2825 13.16951491192501
ONEWEB-0290             
1 49080U 21075F   25217.13212060  .00000061  00000+0  12462-3 0  9992
2 49080  87.9030  68.7463 0001669  62.9294 297.2008 13.17649125192973
